OBJECT_NAME,OBJECT_ID,EPOCH,MEAN_MOTION,ECCENTRICITY,INCLINATION,RA_OF_ASC_NODE,ARG_OF_PERICENTER,MEAN_ANOMALY,EPHEMERIS_TYPE,CLASSIFICATION_TYPE,NORAD_CAT_ID,ELEMENT_SET_NO,REV_AT_EPOCH,BSTAR,MEAN_MOTION_DOT,MEAN_MOTION_DDOT
ONEWEB-0068,2020-020Y,2026-07-12T22:35:59.306496,13.11418356,.00016452,87.8887,15.9360,90.5752,269.5564,0,U,45446,999,30597,.46688823E-3,.178E-5,0
ONEWEB-0046,2020-020Z,2026-07-12T22:23:57.410304,13.11419392,.00016626,87.8879,15.9418,82.3407,277.7909,0,U,45447,999,30598,-.4239568E-3,-.138E-5,0
ONEWEB-0063,2020-020AA,2026-07-12T23:05:41.074080,13.11415913,.00019203,87.8889,15.9372,80.0103,280.1241,0,U,45448,999,30607,.14731211E-2,.535E-5,0
ONEWEB-0019,2020-020AB,2026-07-12T22:11:33.077760,13.11407904,.00019715,87.8890,15.9308,96.7424,263.3929,0,U,45449,999,30591,-.15056782E-2,-.521E-5,0
ONEWEB-0094,2020-020AC,2026-07-12T20:51:54.165024,13.17648988,.00017757,87.9152,0.7414,98.3273,261.8060,0,U,45450,999,30969,.16583358E-4,.19E-6,0
ONEWEB-0087,2020-020AD,2026-07-12T21:30:03.638016,13.11413903,.00015568,87.8915,15.9289,88.7394,271.3912,0,U,45451,999,30595,.29500839E-3,.117E-5,0
ONEWEB-0082,2020-020AE,2026-07-12T21:25:10.859520,13.11415180,.00013668,87.8889,15.9420,82.9309,277.1974,0,U,45452,999,30604,.92290892E-3,.34E-5,0
ONEWEB-0050,2020-020AF,2026-07-12T22:11:04.713504,14.90468540,.00017843,88.9281,229.7144,181.5231,178.5993,0,U,45453,999,34421,.10107163E-3,.1007E-4,0
ONEWEB-0034,2020-020AG,2026-07-12T22:19:18.520608,13.11417911,.00018077,87.8884,15.9434,88.0236,272.1099,0,U,45454,999,30596,-.80091298E-3,-.271E-5,0
ONEWEB-0060,2020-020AH,2026-07-12T21:14:24.079488,13.11415634,.0001126,87.8886,15.9497,119.2593,240.8647,0,U,45455,999,30591,.13919756E-2,.506E-5,0
ONEWEB-0086,2020-020AJ,2026-07-12T22:33:32.345280,13.11419376,.00017454,87.8892,15.9354,114.9677,245.1633,0,U,45456,999,30598,.37429482E-3,.145E-5,0
ONEWEB-0088,2020-020AK,2026-07-12T22:01:58.476288,13.11416651,.00017606,87.8899,15.9146,76.7927,283.3397,0,U,45457,999,30591,-.14455898E-2,-.5E-5,0
ONEWEB-0102,2020-100A,2026-07-12T21:39:03.523968,13.12442752,.00019754,87.8956,345.5605,104.3520,255.7828,0,U,47258,999,26810,-.69330309E-3,-.237E-5,0
ONEWEB-0109,2020-100B,2026-07-12T21:51:15.226560,13.12443748,.00019569,87.8966,345.5448,96.5775,263.5577,0,U,47259,999,26793,-.10834556E-2,-.377E-5,0
ONEWEB-0110,2020-100C,2026-07-13T07:39:13.047264,13.12444527,.00018139,87.8966,345.4477,103.7438,256.3893,0,U,47260,999,26815,.64708893E-3,.246E-5,0
ONEWEB-0111,2020-100D,2026-07-12T21:24:25.730208,13.12442135,.0001726,87.8968,345.5506,96.6573,263.4752,0,U,47261,999,26793,.8251621E-4,.42E-6,0
ONEWEB-0114,2020-100E,2026-07-12T22:08:19.983264,13.12443686,.00021162,87.8978,345.5423,94.2879,265.8492,0,U,47262,999,26789,-.81339236E-3,-.28E-5,0
ONEWEB-0117,2020-100F,2026-07-12T21:56:07.906560,13.12443040,.0001824,87.8968,345.5347,96.7571,263.3765,0,U,47263,999,26790,-.10991377E-2,-.383E-5,0
ONEWEB-0118,2020-100G,2026-07-12T20:55:09.566400,13.12442019,.00019891,87.8966,345.5460,87.3402,272.7954,0,U,47264,999,26809,.12532736E-2,.464E-5,0
ONEWEB-0119,2020-100H,2026-07-12T21:31:44.700960,13.12441786,.00018279,87.8959,345.5545,92.2032,267.9306,0,U,47265,999,26807,-.39313307E-3,-.129E-5,0
ONEWEB-0120,2020-100J,2026-07-12T22:06:05.512032,13.12442810,.00020508,87.8957,345.5524,97.1060,263.0302,0,U,47266,999,26810,-.78711046E-3,-.27E-5,0
ONEWEB-0121,2020-100K,2026-07-12T21:48:48.645504,13.12442248,.00014413,87.8955,345.5448,91.4184,268.7109,0,U,47267,999,26801,-.1149339E-2,-.401E-5,0
ONEWEB-0122,2020-100L,2026-07-12T21:40:16.226976,13.12441227,.00019142,87.8968,345.5490,98.2727,261.8619,0,U,47268,999,26792,-.86708269E-3,-.299E-5,0
ONEWEB-0123,2020-100M,2026-07-12T21:34:10.609824,13.12441798,.00019056,87.8973,345.5526,95.7197,264.4149,0,U,47269,999,26806,-.62066488E-3,-.211E-5,0
ONEWEB-0124,2020-100N,2026-07-12T21:19:32.784096,13.12441614,.00016429,87.8947,345.5599,91.6823,268.4494,0,U,47270,999,26794,.40536779E-3,.159E-5,0
ONEWEB-0125,2020-100P,2026-07-12T20:47:50.090208,13.12443267,.00016174,87.8969,345.5496,88.2275,271.9039,0,U,47271,999,26800,.99966764E-3,.372E-5,0
ONEWEB-0126,2020-100Q,2026-07-12T21:17:19.360032,13.12441524,.00019327,87.8958,345.5594,93.3599,266.7751,0,U,47272,999,26807,.56294938E-3,.215E-5,0
ONEWEB-0127,2020-100R,2026-07-12T22:18:05.741568,13.12444040,.00020077,87.8957,345.5490,97.7383,262.3973,0,U,47273,999,26810,-.45812097E-4,-.4E-7,0
ONEWEB-0128,2020-100S,2026-07-12T20:59:58.520832,13.12484975,.00011383,87.8963,345.5742,124.7140,235.4096,0,U,47274,999,26811,.15679425E-1,.566E-4,0
ONEWEB-0129,2020-100T,2026-07-12T22:20:32.142912,13.12444075,.00029128,87.8958,345.5394,97.7268,262.4191,0,U,47275,999,26805,.77128974E-4,.4E-6,0
