ONEWEB-0068             
1 45446U 20020Y   26193.94165864  .00000178  00000+0  46689-3 0  9992
2 45446  87.8887  15.9360 0001645  90.5752 269.5564 13.11418356305973
ONEWEB-0046             
1 45447U 20020Z   26193.93330336 -.00000138  00000+0 -42396-3 0  9999
2 45447  87.8879  15.9418 0001662  82.3407 277.7909 13.11419392305980
ONEWEB-0063             
1 45448U 20020AA  26193.96228095  .00000535  00000+0  14731-2 0  9991
2 45448  87.8889  15.9372 0001920  80.0103 280.1241 13.11415913306079
ONEWEB-0019             
1 45449U 20020AB  26193.92468840 -.00000521  00000+0 -15057-2 0  9991
2 45449  87.8890  15.9308 0001971  96.7424 263.3929 13.11407904305916
ONEWEB-0094             
1 45450U 20020AC  26193.86937691  .00000019  00000+0  16583-4 0  9998
2 45450  87.9152   0.7414 0001775  98.3273 261.8060 13.17648988309695
ONEWEB-0087             
1 45451U 20020AD  26193.89587544  .00000117  00000+0  29501-3 0  9992
2 45451  87.8915  15.9289 0001556  88.7394 271.3912 13.11413903305952
ONEWEB-0082             
1 45452U 20020AE  26193.89248680  .00000340  00000+0  92291-3 0  9992
2 45452  87.8889  15.9420 0001366  82.9309 277.1974 13.11415180306043
ONEWEB-0050             
1 45453U 20020AF  26193.92436011  .00001007  00000+0  10107-3 0  9991
2 45453  88.9281 229.7144 0001784 181.5231 178.5993 14.90468540344216
ONEWEB-0034             
1 45454U 20020AG  26193.93007547 -.00000271  00000+0 -80091-3 0  9994
2 45454  87.8884  15.9434 0001807  88.0236 272.1099 13.11417911305968
ONEWEB-0060             
1 45455U 20020AH  26193.88500092  .00000506  00000+0  13920-2 0  9997
2 45455  87.8886  15.9497 0001126 119.2593 240.8647 13.11415634305913
ONEWEB-0086             
1 45456U 20020AJ  26193.93995770  .00000145  00000+0  37429-3 0  9995
2 45456  87.8892  15.9354 0001745 114.9677 245.1633 13.11419376305982
ONEWEB-0088             
1 45457U 20020AK  26193.91803792 -.00000500  00000+0 -14456-2 0  9997
2 45457  87.8899  15.9146 0001760  76.7927 283.3397 13.11416651305916
ONEWEB-0102             
1 47258U 20100A   26193.90212412 -.00000237  00000+0 -69330-3 0  9998
2 47258  87.8956 345.5605 0001975 104.3520 255.7828 13.12442752268101
ONEWEB-0109             
1 47259U 20100B   26193.91059290 -.00000377  00000+0 -10835-2 0  9993
2 47259  87.8966 345.5448 0001956  96.5775 263.5577 13.12443748267935
ONEWEB-0110             
1 47260U 20100C   26194.31890101  .00000246  00000+0  64709-3 0  9997
2 47260  87.8966 345.4477 0001813 103.7438 256.3893 13.12444527268159
ONEWEB-0111             
1 47261U 20100D   26193.89196447  .00000042  00000+0  82516-4 0  9993
2 47261  87.8968 345.5506 0001726  96.6573 263.4752 13.12442135267930
ONEWEB-0114             
1 47262U 20100E   26193.92245351 -.00000280  00000+0 -81339-3 0  9994
2 47262  87.8978 345.5423 0002116  94.2879 265.8492 13.12443686267891
ONEWEB-0117             
1 47263U 20100F   26193.91398040 -.00000383  00000+0 -10991-2 0  9997
2 47263  87.8968 345.5347 0001824  96.7571 263.3765 13.12443040267909
ONEWEB-0118             
1 47264U 20100G   26193.87163850  .00000464  00000+0  12533-2 0  9994
2 47264  87.8966 345.5460 0001989  87.3402 272.7954 13.12442019268095
ONEWEB-0119             
1 47265U 20100H   26193.89704515 -.00000129  00000+0 -39313-3 0  9992
2 47265  87.8959 345.5545 0001827  92.2032 267.9306 13.12441786268072
ONEWEB-0120             
1 47266U 20100J   26193.92089713 -.00000270  00000+0 -78711-3 0  9995
2 47266  87.8957 345.5524 0002050  97.1060 263.0302 13.12442810268108
ONEWEB-0121             
1 47267U 20100K   26193.90889636 -.00000401  00000+0 -11493-2 0  9995
2 47267  87.8955 345.5448 0001441  91.4184 268.7109 13.12442248268011
ONEWEB-0122             
1 47268U 20100L   26193.90296559 -.00000299  00000+0 -86708-3 0  9999
2 47268  87.8968 345.5490 0001914  98.2727 261.8619 13.12441227267921
ONEWEB-0123             
1 47269U 20100M   26193.89873391 -.00000211  00000+0 -62066-3 0  9998
2 47269  87.8973 345.5526 0001905  95.7197 264.4149 13.12441798268067
ONEWEB-0124             
1 47270U 20100N   26193.88857389  .00000159  00000+0  40537-3 0  9996
2 47270  87.8947 345.5599 0001642  91.6823 268.4494 13.12441614267949
ONEWEB-0125             
1 47271U 20100P   26193.86655197  .00000372  00000+0  99967-3 0  9996
2 47271  87.8969 345.5496 0001617  88.2275 271.9039 13.12443267268003
ONEWEB-0126             
1 47272U 20100Q   26193.88702963  .00000215  00000+0  56295-3 0  9996
2 47272  87.8958 345.5594 0001932  93.3599 266.7751 13.12441524268071
ONEWEB-0127             
1 47273U 20100R   26193.92923312 -.00000004  00000+0 -45812-4 0  9997
2 47273  87.8957 345.5490 0002007  97.7383 262.3973 13.12444040268107
ONEWEB-0128             
1 47274U 20100S   26193.87498288  .00005660  00000+0  15679-1 0  9997
2 47274  87.8963 345.5742 0001138 124.7140 235.4096 13.12484975268110
ONEWEB-0129             
1 47275U 20100T   26193.93092758  .00000040  00000+0  77129-4 0  9995
2 47275  87.8958 345.5394 0002912  97.7268 262.4191 13.12444075268055
